[{"OBJECT_NAME":"OPTICUBE 04","OBJECT_ID":"2016-067D","EPOCH":"2026-03-09T12:14:28.758048","MEAN_MOTION":15.09188378,"ECCENTRICITY":0.00170901,"INCLINATION":98.0811,"RA_OF_ASC_NODE":275.5525,"ARG_OF_PERICENTER":94.6311,"MEAN_ANOMALY":265.6869,"EPHEMERIS_TYPE":0,"CLASSIFICATION_TYPE":"U","NORAD_CAT_ID":41851,"ELEMENT_SET_NO":999,"REV_AT_EPOCH":51013,"BSTAR":0.00024566739,"MEAN_MOTION_DOT":3.845e-5,"MEAN_MOTION_DDOT":0},{"OBJECT_NAME":"STARLINK-34948","OBJECT_ID":"2025-175T","EPOCH":"2026-03-09T15:07:20.482752","MEAN_MOTION":15.05646323,"ECCENTRICITY":0.0003,"INCLINATION":97.6018,"RA_OF_ASC_NODE":302.6288,"ARG_OF_PERICENTER":82.1533,"MEAN_ANOMALY":278.0034,"EPHEMERIS_TYPE":0,"CLASSIFICATION_TYPE":"U","NORAD_CAT_ID":65191,"ELEMENT_SET_NO":999,"REV_AT_EPOCH":3263,"BSTAR":0.00023346,"MEAN_MOTION_DOT":3.309e-5,"MEAN_MOTION_DDOT":0}]
