OPTICUBE 04             
1 41851U 16067D   26068.51005515  .00003771  00000+0  24102-3 0  9992
2 41851  98.0811 275.5525 0017089  94.6311 265.6869 15.09188144510131
STARLINK-34948          
1 65191U 25175T   26068.63009818  .00003309  00000+0  23346-3 0  9994
2 65191  97.6018 302.6288 0003000  82.1533 278.0034 15.05646323 32632
